OBJECT_NAME,OBJECT_ID,EPOCH,MEAN_MOTION,ECCENTRICITY,INCLINATION,RA_OF_ASC_NODE,ARG_OF_PERICENTER,MEAN_ANOMALY,EPHEMERIS_TYPE,CLASSIFICATION_TYPE,NORAD_CAT_ID,ELEMENT_SET_NO,REV_AT_EPOCH,BSTAR,MEAN_MOTION_DOT,MEAN_MOTION_DDOT
ONEWEB-0033,2020-008M,2026-07-20T00:55:52.272480,13.10375097,.00023168,87.8814,29.7287,94.3515,265.7877,0,U,45142,999,31251,.74278486E-3,.272E-5,0
ONEWEB-0035,2020-008N,2026-07-20T01:25:23.199456,13.10374991,.0001849,87.8814,29.7179,91.1300,269.0039,0,U,45143,999,31224,.15036414E-2,.538E-5,0
ONEWEB-0036,2020-008P,2026-07-20T06:23:07.164096,13.10377224,.00016821,87.8836,29.6948,84.2716,275.8603,0,U,45144,999,31269,.20611498E-3,.85E-6,0
ONEWEB-0038,2020-008Q,2026-07-19T23:26:08.091456,13.11417938,.00023321,87.8902,14.5521,137.9072,222.2236,0,U,45145,999,31462,-.13797138E-2,-.476E-5,0
ONEWEB-0039,2020-008R,2026-07-20T01:00:45.931392,13.10374857,.00013132,87.8822,29.7189,88.5934,271.5344,0,U,45146,999,31246,.12159107E-2,.437E-5,0
ONEWEB-0040,2020-008S,2026-07-20T00:50:58.228224,13.10375331,.00017882,87.8819,29.7307,78.5748,281.5581,0,U,45147,999,31216,.25754388E-3,.103E-5,0
ONEWEB-0043,2020-008U,2026-07-20T06:23:28.186080,13.10378211,.00012896,87.8825,29.6744,85.2748,274.8527,0,U,45149,999,31251,.25173136E-3,.101E-5,0
ONEWEB-0044,2020-008V,2026-07-20T05:14:52.916928,13.10372837,.00016962,87.8823,29.6857,86.5999,273.5322,0,U,45150,999,31280,.94592358E-3,.343E-5,0
ONEWEB-0045,2020-008W,2026-07-20T01:08:28.574016,13.11417112,.00017221,87.8893,14.5185,93.6683,266.4642,0,U,45151,999,31471,-.15883044E-2,-.55E-5,0
ONEWEB-0047,2020-008X,2026-07-20T01:25:00.133248,13.10371007,.00019711,87.8822,29.7166,94.9076,265.2277,0,U,45152,999,31250,.15794703E-2,.564E-5,0
ONEWEB-0048,2020-008Y,2026-07-20T06:47:44.864160,13.10373943,.0001765,87.8814,29.6904,92.7325,267.4004,0,U,45153,999,31214,.18615729E-2,.663E-5,0
ONEWEB-0049,2020-008Z,2026-07-20T06:52:24.863232,13.10371391,.00018097,87.8813,29.6787,75.8427,284.2902,0,U,45154,999,31236,.1844393E-2,.657E-5,0
ONEWEB-0051,2020-008AA,2026-07-20T01:06:01.863360,13.11417603,.00018091,87.8891,14.5240,91.5961,268.5374,0,U,45155,999,31539,-.12632488E-2,-.435E-5,0
ONEWEB-0052,2020-008AB,2026-07-20T01:52:15.827808,13.10372253,.00016626,87.8819,29.7081,78.3317,281.7997,0,U,45156,999,31224,-.97034589E-3,-.326E-5,0
ONEWEB-0053,2020-008AC,2026-07-20T06:18:23.574240,13.10375682,.00014074,87.8817,29.6910,80.1165,280.0122,0,U,45157,999,31224,-.20831539E-3,-.6E-6,0
ONEWEB-0054,2020-008AD,2026-07-20T01:39:50.871456,13.10372843,.00018273,87.8816,29.7153,86.8353,273.2983,0,U,45158,999,31233,.22682435E-3,.92E-6,0
ONEWEB-0056,2020-008AE,2026-07-20T06:27:58.339008,13.10375616,.00020408,87.8828,29.6688,83.7122,276.4238,0,U,45159,999,31251,.78862603E-3,.288E-5,0
ONEWEB-0057,2020-008AF,2026-07-20T01:22:57.484128,13.10371170,.0001451,87.8819,29.7225,75.7910,284.3378,0,U,45160,999,31265,.18107756E-2,.645E-5,0
ONEWEB-0058,2020-008AG,2026-07-20T06:33:20.382048,13.10541413,.00019417,87.8815,29.6830,96.0731,264.0618,0,U,45161,999,31275,.16649561E-2,.595E-5,0
ONEWEB-0059,2020-008AH,2026-07-20T06:28:24.122496,13.10376888,.00015516,87.8820,29.6837,89.5606,270.5699,0,U,45162,999,31265,.83838723E-3,.305E-5,0
ONEWEB-0062,2020-008AJ,2026-07-20T01:32:20.057856,13.10369863,.00021397,87.8819,29.7144,94.4233,265.7139,0,U,45163,999,31249,.91364999E-3,.332E-5,0
ONEWEB-0065,2020-008AK,2026-07-20T00:31:12.182592,13.10373964,.00017466,87.8823,29.7308,78.5362,281.5962,0,U,45164,999,31218,-.15244411E-2,-.519E-5,0
STARLINK-1143,2020-012B,2026-07-19T19:36:49.689792,16.19638520,.0009879,53.0259,23.5212,289.4629,70.5341,0,U,45179,999,35685,.50916E-3,.99022E-2,.11805E-4
STARLINK-1202,2020-012F,2026-07-20T05:12:56.270880,15.37938435,.00047287,53.1540,140.8564,44.6287,315.5097,0,U,45183,999,35528,.68109716E-3,.25486E-3,0
STARLINK-1216,2020-012H,2026-07-20T08:00:01.999872,15.40949923,.00017894,53.1540,140.0220,62.9255,50.9059,0,U,45185,999,588,.23985872E-2,.101183E-2,0
STARLINK-1225,2020-012K,2026-07-20T02:51:26.186112,15.38421273,.00049234,53.1549,141.5235,51.6471,308.4975,0,U,45187,999,35525,.73026515E-3,.27801E-3,0
STARLINK-1230,2020-012M,2026-07-20T03:12:56.630592,15.38321570,.00047185,53.1532,141.5607,50.8134,309.3289,0,U,45189,999,35248,.75581422E-3,.28696E-3,0
STARLINK-1234,2020-012N,2026-07-19T19:51:13.046112,15.86839990,.00038371,53.0331,29.1393,281.5105,78.5487,0,U,45190,999,35667,.37258132E-3,.9804E-3,0
STARLINK-1269,2020-012V,2026-07-20T06:11:37.773312,15.38312658,.00033774,53.1532,140.8097,61.8530,298.2816,0,U,45197,999,35525,.76969568E-3,.2922E-3,0
STARLINK-1154,2020-012W,2026-07-19T22:08:56.572800,15.67001162,.00040343,53.0403,88.0276,105.9588,254.1872,0,U,45198,999,35590,.28314048E-3,.30253E-3,0
